{
  "type": "FeatureCollection",
  "features": [
    {
      "type": "Feature",
      "properties": {
        "norad_id": 66877,
        "name": "ZQ-3 R/B",
        "group": "last-30-days",
        "lat": -5.4392618593086315,
        "lon": -138.69516783309584,
        "alt_km": 265.1274917313913,
        "timestamp": "2025-12-17T21:39:44.492598+00:00",
        "meta_object_name": "ZQ-3 R/B",
        "meta_object_id": "2025-282A",
        "meta_epoch": "2025-12-17T12:36:04.302720",
        "meta_mean_motion": 14.69362325,
        "meta_eccentricity": 0.07381359,
        "meta_inclination": 56.9501,
        "meta_ra_of_asc_node": 39.2183,
        "meta_arg_of_pericenter": 228.3086,
        "meta_mean_anomaly": 125.249,
        "meta_ephemeris_type": 0,
        "meta_classification_type": "U",
        "meta_norad_cat_id": 66877,
        "meta_element_set_no": 999,
        "meta_rev_at_epoch": 209,
        "meta_bstar": 0.00019357394,
        "meta_mean_motion_dot": 0.01031108,
        "meta_mean_motion_ddot": 7.653122e-06,
        "tle_line1": "1 66877U 25282A   25351.52504980  .01031108  76531-5  19357-3 0  9991",
        "tle_line2": "2 66877  56.9501  39.2183 0738135 228.3086 125.2490 14.69362325  2099"
      },
      "geometry": {
        "type": "Point",
        "coordinates": [
          -138.69516783309584,
          -5.4392618593086315
        ]
      }
    },
    {
      "type": "Feature",
      "properties": {
        "norad_id": 66878,
        "name": "STARLINK-35866",
        "group": "last-30-days",
        "lat": -17.836130594434444,
        "lon": -118.17886825718062,
        "alt_km": 330.48599963618835,
        "timestamp": "2025-12-17T21:39:44.492608+00:00",
        "meta_object_name": "STARLINK-35866",
        "meta_object_id": "2025-283A",
        "meta_epoch": "2025-12-17T14:00:03.000384",
        "meta_mean_motion": 15.82055144,
        "meta_eccentricity": 0.00012046,
        "meta_inclination": 53.1556,
        "meta_ra_of_asc_node": 49.4617,
        "meta_arg_of_pericenter": 67.0126,
        "meta_mean_anomaly": 116.6774,
        "meta_ephemeris_type": 0,
        "meta_classification_type": "U",
        "meta_norad_cat_id": 66878,
        "meta_element_set_no": 999,
        "meta_rev_at_epoch": 320,
        "meta_bstar": -0.0065572495,
        "meta_mean_motion_dot": -0.0121475,
        "meta_mean_motion_ddot": 0,
        "tle_line1": "1 66878U 25283A   25351.58336806 -.01214750  00000+0 -65572-2 0  9998",
        "tle_line2": "2 66878  53.1556  49.4617 0001204  67.0126 116.6774 15.82055144  3204"
      },
      "geometry": {
        "type": "Point",
        "coordinates": [
          -118.17886825718062,
          -17.836130594434444
        ]
      }
    },
    {
      "type": "Feature",
      "properties": {
        "norad_id": 66879,
        "name": "STARLINK-35749",
        "group": "last-30-days",
        "lat": -21.69009940553537,
        "lon": -114.79870308812168,
        "alt_km": 331.1237292688902,
        "timestamp": "2025-12-17T21:39:44.492617+00:00",
        "meta_object_name": "STARLINK-35749",
        "meta_object_id": "2025-283B",
        "meta_epoch": "2025-12-17T14:00:03.000384",
        "meta_mean_motion": 15.82018398,
        "meta_eccentricity": 0.00011693,
        "meta_inclination": 53.1554,
        "meta_ra_of_asc_node": 49.4506,
        "meta_arg_of_pericenter": 62.3962,
        "meta_mean_anomaly": 126.3707,
        "meta_ephemeris_type": 0,
        "meta_classification_type": "U",
        "meta_norad_cat_id": 66879,
        "meta_element_set_no": 999,
        "meta_rev_at_epoch": 320,
        "meta_bstar": -0.006922185,
        "meta_mean_motion_dot": -0.01272404,
        "meta_mean_motion_ddot": 0,
        "tle_line1": "1 66879U 25283B   25351.58336806 -.01272404  00000+0 -69222-2 0  9995",
        "tle_line2": "2 66879  53.1554  49.4506 0001169  62.3962 126.3707 15.82018398  3200"
      },
      "geometry": {
        "type": "Point",
        "coordinates": [
          -114.79870308812168,
          -21.69009940553537
        ]
      }
    },
    {
      "type": "Feature",
      "properties": {
        "norad_id": 66880,
        "name": "STARLINK-35844",
        "group": "last-30-days",
        "lat": -19.70410210942801,
        "lon": -116.5677441723718,
        "alt_km": 330.7579974158325,
        "timestamp": "2025-12-17T21:39:44.492628+00:00",
        "meta_object_name": "STARLINK-35844",
        "meta_object_id": "2025-283C",
        "meta_epoch": "2025-12-17T14:00:03.000384",
        "meta_mean_motion": 15.82047674,
        "meta_eccentricity": 0.00011783,
        "meta_inclination": 53.1555,
        "meta_ra_of_asc_node": 49.4566,
        "meta_arg_of_pericenter": 66.6899,
        "meta_mean_anomaly": 119.4398,
        "meta_ephemeris_type": 0,
        "meta_classification_type": "U",
        "meta_norad_cat_id": 66880,
        "meta_element_set_no": 999,
        "meta_rev_at_epoch": 320,
        "meta_bstar": -0.0067517877,
        "meta_mean_motion_dot": -0.0124623,
        "meta_mean_motion_ddot": 0,
        "tle_line1": "1 66880U 25283C   25351.58336806 -.01246230  00000+0 -67518-2 0  9991",
        "tle_line2": "2 66880  53.1555  49.4566 0001178  66.6899 119.4398 15.82047674  3203"
      },
      "geometry": {
        "type": "Point",
        "coordinates": [
          -116.5677441723718,
          -19.70410210942801
        ]
      }
    },
    {
      "type": "Feature",
      "properties": {
        "norad_id": 66881,
        "name": "STARLINK-35860",
        "group": "last-30-days",
        "lat": -23.343276443055405,
        "lon": -113.27463202182217,
        "alt_km": 331.2672117889206,
        "timestamp": "2025-12-17T21:39:44.492638+00:00",
        "meta_object_name": "STARLINK-35860",
        "meta_object_id": "2025-283D",
        "meta_epoch": "2025-12-17T14:00:03.000384",
        "meta_mean_motion": 15.8201227,
        "meta_eccentricity": 0.00011876,
        "meta_inclination": 53.1553,
        "meta_ra_of_asc_node": 49.4459,
        "meta_arg_of_pericenter": 69.6976,
        "meta_mean_anomaly": 121.2565,
        "meta_ephemeris_type": 0,
        "meta_classification_type": "U",
        "meta_norad_cat_id": 66881,
        "meta_element_set_no": 999,
        "meta_rev_at_epoch": 320,
        "meta_bstar": -0.006993921,
        "meta_mean_motion_dot": -0.01283697,
        "meta_mean_motion_ddot": 0,
        "tle_line1": "1 66881U 25283D   25351.58336806 -.01283697  00000+0 -69939-2 0  9999",
        "tle_line2": "2 66881  53.1553  49.4459 0001187  69.6976 121.2565 15.82012270  3203"
      },
      "geometry": {
        "type": "Point",
        "coordinates": [
          -113.27463202182217,
          -23.343276443055405
        ]
      }
    },
    {
      "type": "Feature",
      "properties": {
        "norad_id": 66882,
        "name": "STARLINK-35912",
        "group": "last-30-days",
        "lat": -25.12901611301072,
        "lon": -111.5679767118219,
        "alt_km": 331.6627145588136,
        "timestamp": "2025-12-17T21:39:44.492648+00:00",
        "meta_object_name": "STARLINK-35912",
        "meta_object_id": "2025-283E",
        "meta_epoch": "2025-12-17T14:00:03.000384",
        "meta_mean_motion": 15.81988772,
        "meta_eccentricity": 0.00013361,
        "meta_inclination": 53.1555,
        "meta_ra_of_asc_node": 49.4414,
        "meta_arg_of_pericenter": 63.1153,
        "meta_mean_anomaly": 130.246,
        "meta_ephemeris_type": 0,
        "meta_classification_type": "U",
        "meta_norad_cat_id": 66882,
        "meta_element_set_no": 999,
        "meta_rev_at_epoch": 320,
        "meta_bstar": -0.0070861201,
        "meta_mean_motion_dot": -0.01297397,
        "meta_mean_motion_ddot": 0,
        "tle_line1": "1 66882U 25283E   25351.58336806 -.01297397  00000+0 -70861-2 0  9998",
        "tle_line2": "2 66882  53.1555  49.4414 0001336  63.1153 130.2460 15.81988772  3201"
      },
      "geometry": {
        "type": "Point",
        "coordinates": [
          -111.5679767118219,
          -25.12901611301072
        ]
      }
    },
    {
      "type": "Feature",
      "properties": {
        "norad_id": 66883,
        "name": "STARLINK-35947",
        "group": "last-30-days",
        "lat": -26.977791062065442,
        "lon": -109.72630348920772,
        "alt_km": 331.74422414987293,
        "timestamp": "2025-12-17T21:39:44.492657+00:00",
        "meta_object_name": "STARLINK-35947",
        "meta_object_id": "2025-283F",
        "meta_epoch": "2025-12-17T14:00:03.000384",
        "meta_mean_motion": 15.81954304,
        "meta_eccentricity": 0.00011378,
        "meta_inclination": 53.1555,
        "meta_ra_of_asc_node": 49.4363,
        "meta_arg_of_pericenter": 74.1094,
        "meta_mean_anomaly": 121.7837,
        "meta_ephemeris_type": 0,
        "meta_classification_type": "U",
        "meta_norad_cat_id": 66883,
        "meta_element_set_no": 999,
        "meta_rev_at_epoch": 325,
        "meta_bstar": -0.0071778615,
        "meta_mean_motion_dot": -0.01310137,
        "meta_mean_motion_ddot": 0,
        "tle_line1": "1 66883U 25283F   25351.58336806 -.01310137  00000+0 -71779-2 0  9996",
        "tle_line2": "2 66883  53.1555  49.4363 0001137  74.1094 121.7837 15.81954304  3252"
      },
      "geometry": {
        "type": "Point",
        "coordinates": [
          -109.72630348920772,
          -26.977791062065442
        ]
      }
    }
  ]
}